[{"OBJECT_NAME":"ONEWEB-0102","OBJECT_ID":"2020-100A","EPOCH":"2025-08-03T12:44:16.496736","MEAN_MOTION":13.12443402,"ECCENTRICITY":0.0001642,"INCLINATION":87.8848,"RA_OF_ASC_NODE":53.8323,"ARG_OF_PERICENTER":83.939,"MEAN_ANOMALY":276.1925,"EPHEMERIS_TYPE":0,"CLASSIFICATION_TYPE":"U","NORAD_CAT_ID":47258,"ELEMENT_SET_NO":999,"REV_AT_EPOCH":22306,"BSTAR":0.00078355,"MEAN_MOTION_DOT":2.95e-6,"MEAN_MOTION_DDOT":0},{"OBJECT_NAME":"ONEWEB-0109","OBJECT_ID":"2020-100B","EPOCH":"2025-08-03T12:55:58.109664","MEAN_MOTION":13.12442125,"ECCENTRICITY":0.0001702,"INCLINATION":87.8849,"RA_OF_ASC_NODE":53.8008,"ARG_OF_PERICENTER":82.4132,"MEAN_ANOMALY":277.7189,"EPHEMERIS_TYPE":0,"CLASSIFICATION_TYPE":"U","NORAD_CAT_ID":47259,"ELEMENT_SET_NO":999,"REV_AT_EPOCH":22289,"BSTAR":0.0012226,"MEAN_MOTION_DOT":4.53e-6,"MEAN_MOTION_DDOT":0},{"OBJECT_NAME":"ONEWEB-0110","OBJECT_ID":"2020-100C","EPOCH":"2025-08-03T11:43:32.780640","MEAN_MOTION":13.1244185,"ECCENTRICITY":0.0001991,"INCLINATION":87.8852,"RA_OF_ASC_NODE":53.7934,"ARG_OF_PERICENTER":80.9609,"MEAN_ANOMALY":279.1744,"EPHEMERIS_TYPE":0,"CLASSIFICATION_TYPE":"U","NORAD_CAT_ID":47260,"ELEMENT_SET_NO":999,"REV_AT_EPOCH":22305,"BSTAR":-0.0004523,"MEAN_MOTION_DOT":-1.5e-6,"MEAN_MOTION_DDOT":0},{"OBJECT_NAME":"ONEWEB-0111","OBJECT_ID":"2020-100D","EPOCH":"2025-08-03T12:27:55.226016","MEAN_MOTION":13.1244384,"ECCENTRICITY":0.0001736,"INCLINATION":87.8857,"RA_OF_ASC_NODE":53.8032,"ARG_OF_PERICENTER":86.483,"MEAN_ANOMALY":273.6497,"EPHEMERIS_TYPE":0,"CLASSIFICATION_TYPE":"U","NORAD_CAT_ID":47261,"ELEMENT_SET_NO":999,"REV_AT_EPOCH":22289,"BSTAR":-0.00010405,"MEAN_MOTION_DOT":-2.5e-7,"MEAN_MOTION_DDOT":0},{"OBJECT_NAME":"ONEWEB-0114","OBJECT_ID":"2020-100E","EPOCH":"2025-08-03T13:12:17.682624","MEAN_MOTION":13.1244194,"ECCENTRICITY":0.0001436,"INCLINATION":87.8843,"RA_OF_ASC_NODE":53.7949,"ARG_OF_PERICENTER":84.0972,"MEAN_ANOMALY":276.032,"EPHEMERIS_TYPE":0,"CLASSIFICATION_TYPE":"U","NORAD_CAT_ID":47262,"ELEMENT_SET_NO":999,"REV_AT_EPOCH":22285,"BSTAR":0.0011077,"MEAN_MOTION_DOT":4.11e-6,"MEAN_MOTION_DDOT":0},{"OBJECT_NAME":"ONEWEB-0117","OBJECT_ID":"2020-100F","EPOCH":"2025-08-03T11:10:50.915712","MEAN_MOTION":13.12443205,"ECCENTRICITY":0.0001787,"INCLINATION":87.8854,"RA_OF_ASC_NODE":53.8056,"ARG_OF_PERICENTER":86.8017,"MEAN_ANOMALY":273.3316,"EPHEMERIS_TYPE":0,"CLASSIFICATION_TYPE":"U","NORAD_CAT_ID":47263,"ELEMENT_SET_NO":999,"REV_AT_EPOCH":22285,"BSTAR":0.001313,"MEAN_MOTION_DOT":4.85e-6,"MEAN_MOTION_DDOT":0},{"OBJECT_NAME":"ONEWEB-0118","OBJECT_ID":"2020-100G","EPOCH":"2025-08-03T11:57:33.363648","MEAN_MOTION":13.12442174,"ECCENTRICITY":0.000145,"INCLINATION":87.8855,"RA_OF_ASC_NODE":53.7993,"ARG_OF_PERICENTER":95.0732,"MEAN_ANOMALY":265.0562,"EPHEMERIS_TYPE":0,"CLASSIFICATION_TYPE":"U","NORAD_CAT_ID":47264,"ELEMENT_SET_NO":999,"REV_AT_EPOCH":22305,"BSTAR":-0.0010703,"MEAN_MOTION_DOT":-3.72e-6,"MEAN_MOTION_DDOT":0},{"OBJECT_NAME":"ONEWEB-0119","OBJECT_ID":"2020-100H","EPOCH":"2025-08-03T12:37:16.476960","MEAN_MOTION":13.12444463,"ECCENTRICITY":0.0001766,"INCLINATION":87.885,"RA_OF_ASC_NODE":53.8331,"ARG_OF_PERICENTER":83.9586,"MEAN_ANOMALY":276.1744,"EPHEMERIS_TYPE":0,"CLASSIFICATION_TYPE":"U","NORAD_CAT_ID":47265,"ELEMENT_SET_NO":999,"REV_AT_EPOCH":22303,"BSTAR":0.00059768,"MEAN_MOTION_DOT":2.28e-6,"MEAN_MOTION_DDOT":0},{"OBJECT_NAME":"ONEWEB-0120","OBJECT_ID":"2020-100J","EPOCH":"2025-08-03T13:10:11.415072","MEAN_MOTION":13.12442643,"ECCENTRICITY":0.000166,"INCLINATION":87.8861,"RA_OF_ASC_NODE":53.826,"ARG_OF_PERICENTER":90.2196,"MEAN_ANOMALY":269.9123,"EPHEMERIS_TYPE":0,"CLASSIFICATION_TYPE":"U","NORAD_CAT_ID":47266,"ELEMENT_SET_NO":999,"REV_AT_EPOCH":22306,"BSTAR":0.0011026,"MEAN_MOTION_DOT":4.09e-6,"MEAN_MOTION_DDOT":0},{"OBJECT_NAME":"ONEWEB-0121","OBJECT_ID":"2020-100K","EPOCH":"2025-08-03T12:53:38.889024","MEAN_MOTION":13.12442808,"ECCENTRICITY":0.0001839,"INCLINATION":87.8853,"RA_OF_ASC_NODE":53.7978,"ARG_OF_PERICENTER":84.883,"MEAN_ANOMALY":275.2508,"EPHEMERIS_TYPE":0,"CLASSIFICATION_TYPE":"U","NORAD_CAT_ID":47267,"ELEMENT_SET_NO":999,"REV_AT_EPOCH":22297,"BSTAR":0.0011601,"MEAN_MOTION_DOT":4.3e-6,"MEAN_MOTION_DDOT":0},{"OBJECT_NAME":"ONEWEB-0122","OBJECT_ID":"2020-100L","EPOCH":"2025-08-03T10:56:38.120064","MEAN_MOTION":13.1244442,"ECCENTRICITY":0.00017,"INCLINATION":87.8851,"RA_OF_ASC_NODE":53.8171,"ARG_OF_PERICENTER":82.1451,"MEAN_ANOMALY":277.987,"EPHEMERIS_TYPE":0,"CLASSIFICATION_TYPE":"U","NORAD_CAT_ID":47268,"ELEMENT_SET_NO":999,"REV_AT_EPOCH":22287,"BSTAR":0.0010696,"MEAN_MOTION_DOT":3.98e-6,"MEAN_MOTION_DDOT":0},{"OBJECT_NAME":"ONEWEB-0123","OBJECT_ID":"2020-100M","EPOCH":"2025-08-03T12:39:36.350784","MEAN_MOTION":13.12444031,"ECCENTRICITY":0.0001661,"INCLINATION":87.885,"RA_OF_ASC_NODE":53.8309,"ARG_OF_PERICENTER":89.0703,"MEAN_ANOMALY":271.0615,"EPHEMERIS_TYPE":0,"CLASSIFICATION_TYPE":"U","NORAD_CAT_ID":47269,"ELEMENT_SET_NO":999,"REV_AT_EPOCH":22302,"BSTAR":0.00056099,"MEAN_MOTION_DOT":2.15e-6,"MEAN_MOTION_DDOT":0},{"OBJECT_NAME":"ONEWEB-0124","OBJECT_ID":"2020-100N","EPOCH":"2025-08-03T12:23:14.924544","MEAN_MOTION":13.12443044,"ECCENTRICITY":0.0001939,"INCLINATION":87.8861,"RA_OF_ASC_NODE":53.8325,"ARG_OF_PERICENTER":89.0936,"MEAN_ANOMALY":271.0415,"EPHEMERIS_TYPE":0,"CLASSIFICATION_TYPE":"U","NORAD_CAT_ID":47270,"ELEMENT_SET_NO":999,"REV_AT_EPOCH":22290,"BSTAR":-0.00047696,"MEAN_MOTION_DOT":-1.59e-6,"MEAN_MOTION_DDOT":0},{"OBJECT_NAME":"ONEWEB-0125","OBJECT_ID":"2020-100P","EPOCH":"2025-08-03T11:50:32.614656","MEAN_MOTION":13.12442449,"ECCENTRICITY":0.0001809,"INCLINATION":87.886,"RA_OF_ASC_NODE":53.8006,"ARG_OF_PERICENTER":96.2142,"MEAN_ANOMALY":263.9193,"EPHEMERIS_TYPE":0,"CLASSIFICATION_TYPE":"U","NORAD_CAT_ID":47271,"ELEMENT_SET_NO":999,"REV_AT_EPOCH":22296,"BSTAR":-0.00079426,"MEAN_MOTION_DOT":-2.73e-6,"MEAN_MOTION_DDOT":0},{"OBJECT_NAME":"ONEWEB-0126","OBJECT_ID":"2020-100Q","EPOCH":"2025-08-03T12:21:07.242624","MEAN_MOTION":13.12443964,"ECCENTRICITY":0.0001669,"INCLINATION":87.8866,"RA_OF_ASC_NODE":53.8144,"ARG_OF_PERICENTER":85.5682,"MEAN_ANOMALY":274.5638,"EPHEMERIS_TYPE":0,"CLASSIFICATION_TYPE":"U","NORAD_CAT_ID":47272,"ELEMENT_SET_NO":999,"REV_AT_EPOCH":22303,"BSTAR":-0.00066535,"MEAN_MOTION_DOT":-2.27e-6,"MEAN_MOTION_DDOT":0},{"OBJECT_NAME":"ONEWEB-0127","OBJECT_ID":"2020-100R","EPOCH":"2025-08-03T13:21:38.442816","MEAN_MOTION":13.12442704,"ECCENTRICITY":0.0001668,"INCLINATION":87.886,"RA_OF_ASC_NODE":53.8213,"ARG_OF_PERICENTER":82.126,"MEAN_ANOMALY":278.0058,"EPHEMERIS_TYPE":0,"CLASSIFICATION_TYPE":"U","NORAD_CAT_ID":47273,"ELEMENT_SET_NO":999,"REV_AT_EPOCH":22306,"BSTAR":0.00058925,"MEAN_MOTION_DOT":2.25e-6,"MEAN_MOTION_DDOT":0},{"OBJECT_NAME":"ONEWEB-0128","OBJECT_ID":"2020-100S","EPOCH":"2025-08-03T12:04:33.436992","MEAN_MOTION":13.12442735,"ECCENTRICITY":0.0001876,"INCLINATION":87.8854,"RA_OF_ASC_NODE":53.8584,"ARG_OF_PERICENTER":78.8188,"MEAN_ANOMALY":281.3151,"EPHEMERIS_TYPE":0,"CLASSIFICATION_TYPE":"U","NORAD_CAT_ID":47274,"ELEMENT_SET_NO":999,"REV_AT_EPOCH":22307,"BSTAR":-0.0010828,"MEAN_MOTION_DOT":-3.77e-6,"MEAN_MOTION_DDOT":0},{"OBJECT_NAME":"ONEWEB-0129","OBJECT_ID":"2020-100T","EPOCH":"2025-08-03T13:23:58.967232","MEAN_MOTION":13.12440816,"ECCENTRICITY":8.04e-5,"INCLINATION":87.8864,"RA_OF_ASC_NODE":53.7896,"ARG_OF_PERICENTER":45.9678,"MEAN_ANOMALY":314.1517,"EPHEMERIS_TYPE":0,"CLASSIFICATION_TYPE":"U","NORAD_CAT_ID":47275,"ELEMENT_SET_NO":999,"REV_AT_EPOCH":22301,"BSTAR":0.00026587,"MEAN_MOTION_DOT":1.08e-6,"MEAN_MOTION_DDOT":0},{"OBJECT_NAME":"ONEWEB-0130","OBJECT_ID":"2020-100U","EPOCH":"2025-08-03T12:13:53.500800","MEAN_MOTION":13.12443124,"ECCENTRICITY":0.000179,"INCLINATION":87.8842,"RA_OF_ASC_NODE":53.7993,"ARG_OF_PERICENTER":83.8989,"MEAN_ANOMALY":276.2343,"EPHEMERIS_TYPE":0,"CLASSIFICATION_TYPE":"U","NORAD_CAT_ID":47276,"ELEMENT_SET_NO":999,"REV_AT_EPOCH":22297,"BSTAR":-0.0015566,"MEAN_MOTION_DOT":-5.47e-6,"MEAN_MOTION_DDOT":0},{"OBJECT_NAME":"ONEWEB-0131","OBJECT_ID":"2020-100V","EPOCH":"2025-08-03T12:09:14.344992","MEAN_MOTION":13.12442684,"ECCENTRICITY":0.0001848,"INCLINATION":87.8859,"RA_OF_ASC_NODE":53.827,"ARG_OF_PERICENTER":85.5913,"MEAN_ANOMALY":274.5426,"EPHEMERIS_TYPE":0,"CLASSIFICATION_TYPE":"U","NORAD_CAT_ID":47277,"ELEMENT_SET_NO":999,"REV_AT_EPOCH":22301,"BSTAR":-0.0011024,"MEAN_MOTION_DOT":-3.84e-6,"MEAN_MOTION_DDOT":0},{"OBJECT_NAME":"ONEWEB-0132","OBJECT_ID":"2020-100W","EPOCH":"2025-08-03T11:01:30.261792","MEAN_MOTION":13.12443932,"ECCENTRICITY":0.0001934,"INCLINATION":87.8856,"RA_OF_ASC_NODE":53.839,"ARG_OF_PERICENTER":89.6353,"MEAN_ANOMALY":270.4997,"EPHEMERIS_TYPE":0,"CLASSIFICATION_TYPE":"U","NORAD_CAT_ID":47278,"ELEMENT_SET_NO":999,"REV_AT_EPOCH":22290,"BSTAR":0.0012094,"MEAN_MOTION_DOT":4.48e-6,"MEAN_MOTION_DDOT":0},{"OBJECT_NAME":"ONEWEB-0133","OBJECT_ID":"2020-100X","EPOCH":"2025-08-03T11:24:39.533184","MEAN_MOTION":13.12442869,"ECCENTRICITY":0.0001834,"INCLINATION":87.8849,"RA_OF_ASC_NODE":53.8099,"ARG_OF_PERICENTER":82.6677,"MEAN_ANOMALY":277.466,"EPHEMERIS_TYPE":0,"CLASSIFICATION_TYPE":"U","NORAD_CAT_ID":47279,"ELEMENT_SET_NO":999,"REV_AT_EPOCH":22306,"BSTAR":0.00081869,"MEAN_MOTION_DOT":3.07e-6,"MEAN_MOTION_DDOT":0},{"OBJECT_NAME":"ONEWEB-0134","OBJECT_ID":"2020-100Y","EPOCH":"2025-08-03T12:30:15.008256","MEAN_MOTION":13.12443844,"ECCENTRICITY":0.0001778,"INCLINATION":87.8848,"RA_OF_ASC_NODE":53.7845,"ARG_OF_PERICENTER":78.301,"MEAN_ANOMALY":281.8318,"EPHEMERIS_TYPE":0,"CLASSIFICATION_TYPE":"U","NORAD_CAT_ID":47280,"ELEMENT_SET_NO":999,"REV_AT_EPOCH":22304,"BSTAR":8.1548e-5,"MEAN_MOTION_DOT":4.2e-7,"MEAN_MOTION_DDOT":0},{"OBJECT_NAME":"ONEWEB-0135","OBJECT_ID":"2020-100Z","EPOCH":"2025-08-03T11:48:12.759840","MEAN_MOTION":13.12441548,"ECCENTRICITY":0.0001971,"INCLINATION":87.8852,"RA_OF_ASC_NODE":53.8299,"ARG_OF_PERICENTER":73.0885,"MEAN_ANOMALY":287.0459,"EPHEMERIS_TYPE":0,"CLASSIFICATION_TYPE":"U","NORAD_CAT_ID":47281,"ELEMENT_SET_NO":999,"REV_AT_EPOCH":22306,"BSTAR":-0.00063845,"MEAN_MOTION_DOT":-2.17e-6,"MEAN_MOTION_DDOT":0}]
